start=new Date('2022-02-22T00:00:00.000Z').valueOf();
sats=[{"SITE":"AFETR","TLE_LINE1":"1 45755U 20038AB  22052.65045893 -.00000372  00000-0 -60918-5 0  9993","ARG_OF_PERICENTER":"59.8146","EPHEMERIS_TYPE":"0","APOAPSIS":"548.422","DECAY_DATE":null,"NORAD_CAT_ID":"45755","BSTAR":"-0.00000609180000","CLASSIFICATION_TYPE":"U","MEAN_MOTION_DDOT":"0.0000000000000","ECCENTRICITY":"0.00017470","OBJECT_TYPE":"PAYLOAD","REF_FRAME":"TEME","PERIAPSIS":"546.003","GP_ID":"196569780","LAUNCH_DATE":"2020-06-13","REV_AT_EPOCH":"9384","OBJECT_NAME":"STARLINK-1478","ELEMENT_SET_NO":"999","MEAN_ANOMALY":"300.3016","SEMIMAJOR_AXIS":"6925.348","OBJECT_ID":"2020-038AB","TIME_SYSTEM":"UTC","TLE_LINE2":"2 45755  53.0562   7.3160 0001747  59.8146 300.3016 15.06400311 93846","COUNTRY_CODE":"US","CENTER_NAME":"EARTH","RA_OF_ASC_NODE":"7.3160","MEAN_MOTION_DOT":"-0.00000372","INCLINATION":"53.0562","FILE":"3312023","MEAN_ELEMENT_THEORY":"SGP4","EPOCH":"2022-02-21T15:36:39.651552","PERIOD":"95.592","MEAN_MOTION":"15.06400311","RCS_SIZE":"LARGE"},{"FILE":"3312023","INCLINATION":"53.0556","MEAN_ELEMENT_THEORY":"SGP4","MEAN_MOTION_DOT":"-0.00000779","RA_OF_ASC_NODE":"7.6246","TLE_LINE2":"2 45756  53.0556   7.6246 0001776  59.1152 301.0011 15.06395065 93831","COUNTRY_CODE":"US","CENTER_NAME":"EARTH","RCS_SIZE":"LARGE","MEAN_MOTION":"15.06395065","PERIOD":"95.592","EPOCH":"2022-02-21T13:55:49.355040","REF_FRAME":"TEME","OBJECT_TYPE":"PAYLOAD","PERIAPSIS":"545.999","MEAN_MOTION_DDOT":"0.0000000000000","ECCENTRICITY":"0.00017760","EPHEMERIS_TYPE":"0","APOAPSIS":"548.459","CLASSIFICATION_TYPE":"U","BSTAR":"-0.00003340000000","DECAY_DATE":null,"NORAD_CAT_ID":"45756","TLE_LINE1":"1 45756U 20038AC  22052.58043235 -.00000779  00000-0 -33400-4 0  9990","SITE":"AFETR","ARG_OF_PERICENTER":"59.1152","MEAN_ANOMALY":"301.0011","OBJECT_ID":"2020-038AC","TIME_SYSTEM":"UTC","SEMIMAJOR_AXIS":"6925.364","REV_AT_EPOCH":"9383","OBJECT_NAME":"STARLINK-1484","LAUNCH_DATE":"2020-06-13","ELEMENT_SET_NO":"999","GP_ID":"196571030"},{"COUNTRY_CODE":"US","CENTER_NAME":"EARTH","TLE_LINE2":"2 45757  53.0551   7.5402 0001681  59.6383 300.4772 15.06407274 93839","MEAN_MOTION_DOT":"0.00005709","RA_OF_ASC_NODE":"7.5402","MEAN_ELEMENT_THEORY":"SGP4","FILE":"3312023","INCLINATION":"53.0551","MEAN_MOTION":"15.06407274","PERIOD":"95.592","EPOCH":"2022-02-21T14:22:21.115200","RCS_SIZE":"LARGE","ARG_OF_PERICENTER":"59.6383","SITE":"AFETR","TLE_LINE1":"1 45757U 20038AD  22052.59885550  .00005709  00000-0  40175-3 0  9998","CLASSIFICATION_TYPE":"U","BSTAR":"0.00040175000000","NORAD_CAT_ID":"45757","DECAY_DATE":null,"EPHEMERIS_TYPE":"0","APOAPSIS":"548.355","ECCENTRICITY":"0.00016810","MEAN_MOTION_DDOT":"0.0000000000000","PERIAPSIS":"546.027","REF_FRAME":"TEME","OBJECT_TYPE":"PAYLOAD","GP_ID":"196571285","ELEMENT_SET_NO":"999","REV_AT_EPOCH":"9383","OBJECT_NAME":"STARLINK-1486","LAUNCH_DATE":"2020-06-13","OBJECT_ID":"2020-038AD","TIME_SYSTEM":"UTC","SEMIMAJOR_AXIS":"6925.326","MEAN_ANOMALY":"300.4772"},{"ECCENTRICITY":"0.00018110","MEAN_MOTION_DDOT":"0.0000000000000","PERIAPSIS":"545.950","REF_FRAME":"TEME","OBJECT_TYPE":"PAYLOAD","ARG_OF_PERICENTER":"53.0137","SITE":"AFETR","TLE_LINE1":"1 45758U 20038AE  22052.85687500 -.00002592  00000-0 -15517-3 0  9994","NORAD_CAT_ID":"45758","DECAY_DATE":null,"BSTAR":"-0.00015517000000","CLASSIFICATION_TYPE":"U","APOAPSIS":"548.458","EPHEMERIS_TYPE":"0","ELEMENT_SET_NO":"999","LAUNCH_DATE":"2020-06-13","REV_AT_EPOCH":"9387","OBJECT_NAME":"STARLINK-1487","SEMIMAJOR_AXIS":"6925.339","TIME_SYSTEM":"UTC","OBJECT_ID":"2020-038AE","MEAN_ANOMALY":"307.1017","GP_ID":"196570032","RA_OF_ASC_NODE":"6.3778","MEAN_MOTION_DOT":"-0.00002592","MEAN_ELEMENT_THEORY":"SGP4","INCLINATION":"53.0564","FILE":"3312023","CENTER_NAME":"EARTH","COUNTRY_CODE":"US","TLE_LINE2":"2 45758  53.0564   6.3778 0001811  53.0137 307.1017 15.06403142 93877","RCS_SIZE":"LARGE","EPOCH":"2022-02-21T20:33:54.000000","PERIOD":"95.592","MEAN_MOTION":"15.06403142"},{"RCS_SIZE":"LARGE","PERIOD":"95.592","EPOCH":"2022-02-21T21:42:54.187776","MEAN_MOTION":"15.06403093","RA_OF_ASC_NODE":"6.1582","MEAN_MOTION_DOT":"-0.00000435","INCLINATION":"53.0550","FILE":"3312023","MEAN_ELEMENT_THEORY":"SGP4","TLE_LINE2":"2 45759  53.0550   6.1582 0001848  52.5101 307.6056 15.06403093 93883","COUNTRY_CODE":"US","CENTER_NAME":"EARTH","LAUNCH_DATE":"2020-06-13","REV_AT_EPOCH":"9388","OBJECT_NAME":"STARLINK-1493","ELEMENT_SET_NO":"999","MEAN_ANOMALY":"307.6056","SEMIMAJOR_AXIS":"6925.339","TIME_SYSTEM":"UTC","OBJECT_ID":"2020-038AF","GP_ID":"196570281","MEAN_MOTION_DDOT":"0.0000000000000","ECCENTRICITY":"0.00018480","OBJECT_TYPE":"PAYLOAD","REF_FRAME":"TEME","PERIAPSIS":"545.924","SITE":"AFETR","TLE_LINE1":"1 45759U 20038AF  22052.90479384 -.00000435  00000-0 -10285-4 0  9992","ARG_OF_PERICENTER":"52.5101","EPHEMERIS_TYPE":"0","APOAPSIS":"548.484","NORAD_CAT_ID":"45759","DECAY_DATE":null,"CLASSIFICATION_TYPE":"U","BSTAR":"-0.00001028500000"},{"TLE_LINE2":"2 45760  53.0566   6.4579 0001788  58.8582 301.2582 15.06399644 93886","CENTER_NAME":"EARTH","COUNTRY_CODE":"US","FILE":"3312023","INCLINATION":"53.0566","MEAN_ELEMENT_THEORY":"SGP4","MEAN_MOTION_DOT":"0.00000034","RA_OF_ASC_NODE":"6.4579","MEAN_MOTION":"15.06399644","PERIOD":"95.592","EPOCH":"2022-02-21T20:12:40.257504","RCS_SIZE":"LARGE","EPHEMERIS_TYPE":"0","APOAPSIS":"548.453","CLASSIFICATION_TYPE":"U","BSTAR":"0.00002122000000","NORAD_CAT_ID":"45760","DECAY_DATE":null,"TLE_LINE1":"1 45760U 20038AG  22052.84213261  .00000034  00000-0  21220-4 0  9991","SITE":"AFETR","ARG_OF_PERICENTER":"58.8582","OBJECT_TYPE":"PAYLOAD","REF_FRAME":"TEME","PERIAPSIS":"545.976","MEAN_MOTION_DDOT":"0.0000000000000","ECCENTRICITY":"0.00017880","GP_ID":"196570530","MEAN_ANOMALY":"301.2582","TIME_SYSTEM":"UTC","OBJECT_ID":"2020-038AG","SEMIMAJOR_AXIS":"6925.350","REV_AT_EPOCH":"9388","OBJECT_NAME":"STARLINK-1494","LAUNCH_DATE":"2020-06-13","ELEMENT_SET_NO":"999"},{"GP_ID":"196570785","SEMIMAJOR_AXIS":"6756.155","OBJECT_ID":"2020-038AH","TIME_SYSTEM":"UTC","MEAN_ANOMALY":"308.8212","ELEMENT_SET_NO":"999","LAUNCH_DATE":"2020-06-13","REV_AT_EPOCH":"9476","OBJECT_NAME":"STARLINK-1495","DECAY_DATE":null,"NORAD_CAT_ID":"45761","CLASSIFICATION_TYPE":"U","BSTAR":"0.00033869000000","EPHEMERIS_TYPE":"0","APOAPSIS":"379.029","ARG_OF_PERICENTER":"51.2935","SITE":"AFETR","TLE_LINE1":"1 45761U 20038AH  22052.95822008  .00031315  00000-0  33869-3 0  9996","PERIAPSIS":"377.012","OBJECT_TYPE":"PAYLOAD","REF_FRAME":"TEME","ECCENTRICITY":"0.00014930","MEAN_MOTION_DDOT":"0.0000000000000","PERIOD":"92.111","EPOCH":"2022-02-21T22:59:50.214912","MEAN_MOTION":"15.63339525","RCS_SIZE":"LARGE","COUNTRY_CODE":"US","CENTER_NAME":"EARTH","TLE_LINE2":"2 45761  53.0552 305.2886 0001493  51.2935 308.8212 15.63339525 94761","MEAN_ELEMENT_THEORY":"SGP4","INCLINATION":"53.0552","FILE":"3312023","RA_OF_ASC_NODE":"305.2886","MEAN_MOTION_DOT":"0.00031315"},{"GP_ID":"196569532","OBJECT_NAME":"STARLINK-1499","REV_AT_EPOCH":"9389","LAUNCH_DATE":"2020-06-13","ELEMENT_SET_NO":"999","MEAN_ANOMALY":"298.8376","TIME_SYSTEM":"UTC","OBJECT_ID":"2020-038AJ","SEMIMAJOR_AXIS":"6925.317","SITE":"AFETR","TLE_LINE1":"1 45762U 20038AJ  22052.87898257  .00003666  00000-0  26483-3 0  9999","ARG_OF_PERICENTER":"61.2796","APOAPSIS":"548.446","EPHEMERIS_TYPE":"0","BSTAR":"0.00026483000000","CLASSIFICATION_TYPE":"U","NORAD_CAT_ID":"45762","DECAY_DATE":null,"MEAN_MOTION_DDOT":"0.0000000000000","ECCENTRICITY":"0.00018260","OBJECT_TYPE":"PAYLOAD","REF_FRAME":"TEME","PERIAPSIS":"545.917","MEAN_MOTION":"15.06410335","PERIOD":"95.591","EPOCH":"2022-02-21T21:05:44.094048","RCS_SIZE":"LARGE","TLE_LINE2":"2 45762  53.0552   6.2858 0001826  61.2796 298.8376 15.06410335 93893","CENTER_NAME":"EARTH","COUNTRY_CODE":"US","MEAN_MOTION_DOT":"0.00003666","RA_OF_ASC_NODE":"6.2858","FILE":"3312023","INCLINATION":"53.0552","MEAN_ELEMENT_THEORY":"SGP4"},{"MEAN_MOTION":"15.76683934","EPOCH":"2022-02-21T20:16:30.474624","PERIOD":"91.331","RCS_SIZE":"LARGE","COUNTRY_CODE":"US","CENTER_NAME":"EARTH","TLE_LINE2":"2 45763  53.0499 256.6731 0003038  17.5041 342.6083 15.76683934 95618","MEAN_ELEMENT_THEORY":"SGP4","FILE":"3312023","INCLINATION":"53.0499","MEAN_MOTION_DOT":"-0.00021939","RA_OF_ASC_NODE":"256.6731","GP_ID":"196569781","OBJECT_ID":"2020-038AK","TIME_SYSTEM":"UTC","SEMIMAJOR_AXIS":"6717.981","MEAN_ANOMALY":"342.6083","ELEMENT_SET_NO":"999","OBJECT_NAME":"STARLINK-1501","REV_AT_EPOCH":"9561","LAUNCH_DATE":"2020-06-13","BSTAR":"-0.00013057000000","CLASSIFICATION_TYPE":"U","NORAD_CAT_ID":"45763","DECAY_DATE":null,"APOAPSIS":"341.887","EPHEMERIS_TYPE":"0","ARG_OF_PERICENTER":"17.5041","SITE":"AFETR","TLE_LINE1":"1 45763U 20038AK  22052.84479716 -.00021939  00000-0 -13057-3 0  9990","PERIAPSIS":"337.805","OBJECT_TYPE":"PAYLOAD","REF_FRAME":"TEME","ECCENTRICITY":"0.00030380","MEAN_MOTION_DDOT":"0.0000000000000"},{"DECAY_DATE":null,"NORAD_CAT_ID":"45764","CLASSIFICATION_TYPE":"U","BSTAR":"0.00020741000000","APOAPSIS":"548.439","EPHEMERIS_TYPE":"0","ARG_OF_PERICENTER":"60.4723","SITE":"AFETR","TLE_LINE1":"1 45764U 20038AL  22052.87162021  .00002810  00000-0  20741-3 0  9995","PERIAPSIS":"545.920","REF_FRAME":"TEME","OBJECT_TYPE":"PAYLOAD","ECCENTRICITY":"0.00018190","MEAN_MOTION_DDOT":"0.0000000000000","GP_ID":"196571031","SEMIMAJOR_AXIS":"6925.314","TIME_SYSTEM":"UTC","OBJECT_ID":"2020-038AL","MEAN_ANOMALY":"299.6447","ELEMENT_SET_NO":"999","LAUNCH_DATE":"2020-06-13","OBJECT_NAME":"STARLINK-1502","REV_AT_EPOCH":"9389","COUNTRY_CODE":"US","CENTER_NAME":"EARTH","TLE_LINE2":"2 45764  53.0569   6.3081 0001819  60.4723 299.6447 15.06411200 93895","MEAN_ELEMENT_THEORY":"SGP4","INCLINATION":"53.0569","FILE":"3312023","RA_OF_ASC_NODE":"6.3081","MEAN_MOTION_DOT":"0.00002810","EPOCH":"2022-02-21T20:55:07.986144","PERIOD":"95.591","MEAN_MOTION":"15.06411200","RCS_SIZE":"LARGE"}];
